0 AGILE
1 31135U 07013A   13283.21796816  .00004271  00000-0  16267-3 0  8382
2 31135 002.4694 067.4731 0017774 100.6087 259.7340 15.16590261357940
0 AGILE
1 31135U 07013A   13283.67820352  .00005383  00000-0  21749-3 0  8392
2 31135 002.4692 063.8820 0017268 105.2162 254.9939 15.16601708358019
0 AGILE
1 31135U 07013A   13285.84805325  .00005385  00000-0  21749-3 0  8400
2 31135 002.4692 047.3742 0017257 138.2074 221.9299 15.16620958358342
0 AGILE
1 31135U 07013A   13287.03159370  .00005387  00000-0  21749-3 0  8418
2 31135 002.4692 038.3698 0017251 156.2032 203.8821 15.16631462358522
0 AGILE
1 31135U 07013A   13287.82061524  .00005577  00000-0  22681-3 0  8426
2 31135 002.4696 032.3794 0017337 169.0966 190.9520 15.16640206358641
0 AGILE
1 31135U 07013A   13295.11884550  .00006918  00000-0  29201-3 0  8435
2 31135 002.4691 336.8519 0017480 279.4547 080.3492 15.16728554359759
